ONEWEB-0144             
1 47290U 20100AJ  24210.48768574 -.00000343  00000+0 -98918-3 0  9992
2 47290  87.8952 127.8019 0001729  86.0423 274.0903 13.12441191174232
ONEWEB-0145             
1 47291U 20100AK  24210.30601715  .00000491  00000+0  13304-2 0  9994
2 47291  87.8951 127.8621 0001883  79.7960 280.3380 13.12444740174408
ONEWEB-0146             
1 47292U 20100AL  24210.53149273  .00000414  00000+0  11160-2 0  9999
2 47292  87.8951 127.8013 0002316  69.4243 290.7134 13.12444509174344
ONEWEB-0147             
1 47293U 20100AM  24210.49741708 -.00000560  00000+0 -15930-2 0  9999
2 47293  87.8952 127.8004 0001692  72.8333 287.2981 13.12442242174231
ONEWEB-0115             
1 48042U 21025A   24210.45376674  .00000376  00000+0  99432-3 0  9994
2 48042  87.8902  97.3171 0001889  73.9386 286.1951 13.13470562163198
ONEWEB-0153             
1 48044U 21025C   24210.21571080  .00000404  00000+0  10703-2 0  9993
2 48044  87.8911  97.3526 0001798  79.9966 280.1366 13.13471362163118
